#cP2022  4  1 12  0  0.00000000     576 d+D   IGb14 EXT AIUB
## 2203 475200.00000000   300.00000000 59670 0.5000000000000
+   75   G01G02G03G04G05G07G08G09G10G11G12G13G14G15G16G17G18
+        G19G20G21G22G23G24G25G26G27G28G29G30G31G32R01R02R03
+        R04R05R07R08R09R12R13R14R15R17R18R19R21R22R24E01E02
+        E03E04E05E07E08E09E10E11E12E13E14E15E18E19E21E24E25
+        E26E27E30E31E33E34E36  0  0  0  0  0  0  0  0  0  0
++         5  7  6  8  7  8  7  8  6  9  7  7  7  7  7  7  8
++         7  7  7  7  7  6  6  7  6  7  7  9  7  6  7  7  7
++         7  8  7  7  6  7  8  7  8  8  8  8  7  8  7  6  7
++         6  9  6  6  6  6  9  6  8  6  7  6  6  7  6  6  7
++         6  6  6  7  7  7  8  0  0  0  0  0  0  0  0  0  0
%c M  cc GPS ccc cccc cccc cccc cccc ccccc ccccc ccccc ccccc
%c cc cc ccc ccc cccc cccc cccc cccc ccccc ccccc ccccc ccccc
%f  1.2500000  1.025000000  0.00000000000  0.000000000000000
%f  0.0000000  0.000000000  0.00000000000  0.000000000000000
%i    0    0    0    0      0      0      0      0         0
%i    0    0    0    0      0      0      0      0         0
/* Center for Orbit Determination in Europe (CODE)          
/* Ultra-rapid GRE orbits starting year-day 22091 12 hour   
/* Observed/predicted: 24/24 hours (data used up to 092L)   
/* PCV:IGS14      OL/AL:FES2014b NONE     YN ORB:CoN CLK:BRD
*  2022  4  3  3 45  0.00000000
PG01  -9102.574562  19427.438927 -15706.143944    393.904402               P   P
PG02  21311.369113 -15422.129967  -3507.957413   -652.869818               P   P
PG03    785.359535  16089.266681 -21242.135038   -190.873625               P   P
PG04  -1275.461531  26022.499487  -4914.709071   -178.955399               P   P
PG05  15784.091911  -8561.805014  19458.363606    -76.933772               P   P
PG07   7440.724573  13817.120948  21788.053664    318.882502               P   P
PG08  -6984.327476  21149.570612  14162.558852    -62.362736               P   P
PG09   7397.401873  24860.529416   5570.023203   -346.117647               P   P
PG10 -23885.611753 -11802.092477   2181.193129   -366.713470               P   P
PG11  23211.108385 -12383.026771  -3617.241296    -54.804405               P   P
PG12   4044.633860 -14844.510139 -21927.883536   -194.522707               P   P
PG13  12890.321853 -13857.891298  18413.568951    287.538952               P   P
PG14  22975.244867  13126.749119   2750.031094    -99.529323               P   P
PG15   4402.213410 -22362.161294  12966.057819    -71.903404               P   P
PG16 -19762.018199   2928.785577  17455.609897   -487.673721               P   P
PG17  13031.193892  13641.075985 -18247.182860    595.426837               P   P
PG18  -6357.781434 -13763.024936  21794.797977    204.874723               P   P
PG19  14626.911799   6026.930788 -21627.022161    139.353370               P   P
PG20  22682.142153  -3983.781774  13022.722132    516.005246               P   P
PG21 -16940.327933  19259.471697  -4702.611563    160.079229               P   P
PG22 -15011.134893  -2532.521988 -21370.158347    237.349615               P   P
PG23 -17400.232256 -15974.981745  12232.436683    -11.981424               P   P
PG24  11216.939263 -21083.347991 -11473.348332    261.380398               P   P
PG25 -10711.019944 -17647.541453 -17152.431501    306.880951               P   P
PG26 -25363.556037  -3362.757422   7615.743865    195.729605               P   P
PG27 -12852.051735  10321.785054  20525.519718    173.146620               P   P
PG28  24160.635168   9017.002440  -5311.539444    374.154893               P   P
PG29  -4109.431951 -25809.931375   4506.768138   -498.718684               P   P
PG30  15316.873518   7540.468576  20476.439139   -521.943199               P   P
PG31 -22225.143772   3041.021484 -14701.841565   -171.747187               P   P
PG32 -14979.158394 -10213.607059 -19332.163844    -97.465133               P   P
PR01  16927.723183  15490.071556  11167.500938      7.515773               P   P
PR02  11444.767682  -1956.954424  22753.718609    514.396711               P   P
PR03   -115.794220 -16981.751977  19104.722218     54.202974               P   P
PR04 -11410.369615 -22283.387399   4947.928373    134.870843               P   P
PR05 -16386.752933 -15456.334538 -11973.306499     90.507979               P   P
PR07    638.142879  17376.849170 -18599.290075     33.451339               P   P
PR08  11584.744397  22215.926796  -4659.431589    -64.361840               P   P
PR09 -23827.113371   5234.101634   7338.953338     47.777508               P   P
PR12  22972.507092   3770.206148  10424.137518     17.724000               P   P
PR13  24329.256631  -4528.817425  -6199.039218    -20.293519               P   P
PR14  10906.030658 -10553.221176 -20499.950699     76.042327               P   P
PR15  -8316.388000 -10086.706858 -21888.851878     97.134151               P   P
PR17  11366.348953 -22792.921042   1078.674204    514.504750               P   P
PR18   1933.801626 -19383.504513  16516.380706    112.278573               P   P
PR19  -7837.684557  -7045.221386  23227.977649   -183.896331               P   P
PR21 -10847.091506  22955.122252  -2564.986050   -290.299457               P   P
PR22  -1420.059150  18745.605418 -17199.632526   -174.439757               P   P
PR24  15343.024422 -13323.795713 -15399.693832     87.319114               P   P
PE01 -24008.098711 -14127.405750 -10027.671733   -609.002149               P   P
PE02  24099.000809  14044.068673   9873.569127    290.362767               P   P
PE03  15805.359346  20161.223265  14841.700036   -543.996202               P   P
PE04 -17377.234878    162.288437 -23951.077993   -998.260429               P   P
PE05   4901.164008  29017.798031  -3178.088561   -194.430414               P   P
PE07   8711.395223 -20865.092915  19109.026013   -654.732512               P   P
PE08  17179.171464   -581.344892  24104.311835   -505.845085               P   P
PE09  -8383.923566  21045.663309 -19050.189411   -471.079230               P   P
PE10 -23423.171858  16667.148536   7036.970612   -504.326827               P   P
PE11 -19514.572078  21997.905007  -3283.511340   4063.463472               P   P
PE12 -23545.710139   8773.630500  15624.721556   4681.963749               P   P
PE13  19856.688152 -21808.214248   2600.314328    427.753903               P   P
PE14 -14482.242251  -7462.339331  16932.145707  -1800.567675               P   P
PE15  23474.077546  -8764.650741 -15762.428042    753.980725               P   P
PE18  19688.897378  11352.360304 -23159.642560  -1609.617445               P   P
PE19 -14769.045931 -22134.056437 -12960.163763  -2374.727626               P   P
PE21  -7095.897203 -17950.771015 -22448.567553   -726.213841               P   P
PE24 -16200.946932  11026.680762  22173.594985   -540.032329               P   P
PE25   6790.711149  17932.290726  22547.581869   -569.031422               P   P
PE26   3656.569428 -21676.163377  19830.043715   -985.883886               P   P
PE27  14912.212400 -11760.636577 -22703.153776   -267.536586               P   P
PE30  28215.936106   2117.975743  -8676.660545   -399.808809               P   P
PE31 -27975.360838  -1301.507390   9596.651889   -494.480856               P   P
PE33 -13219.799827  -9411.742215  24758.810326   -457.971195               P   P
PE34  13412.877841   9200.400114 -24736.076602   -510.080906               P   P
PE36  -4595.087086  21948.209792 -19310.793669   -354.252685               P   P
EOF
